STARLINK-1199           
1 45201U 20012Z   26068.25932625 -.00002037  00000+0 -58259-4 0  9999
2 45201  53.1569  25.8332 0001623  88.0191 272.0995 15.29352067335099
EOSSAT-1                
1 55053U 23001AW  26068.73619225  .00007695  00000+0  24844-3 0  9992
2 55053  97.3357 130.2294 0011263 110.3168 249.9285 15.32339828176689
